{
  "norad_id": 54214,
  "name": "SHIYAN-20C (SY-20C)",
  "history": [
    {
      "epoch": "2026-03-28T21:04:57.825984Z",
      "apogee_km": 801.1768437654619,
      "perigee_km": 785.6471412841083,
      "latitude_deg": 1.2804320261065776e-05,
      "longitude_deg": 63.22109290493201,
      "height_km": 801.8248208244696,
      "semi_major_axis_km": 7171.548992524785,
      "eccentricity": 0.00108273,
      "inclination_deg": 59.9955,
      "raan_deg": 205.7546,
      "arg_perigee_deg": 207.6788,
      "mean_anomaly_deg": 152.3672,
      "mean_motion_rev_day": 14.29497195
    },
    {
      "epoch": "2026-03-29T05:28:33.404160Z",
      "apogee_km": 801.1437111018549,
      "perigee_km": 785.677551480213,
      "latitude_deg": -2.0877036356203632e-06,
      "longitude_deg": -64.17755511974488,
      "height_km": 801.7716068120092,
      "semi_major_axis_km": 7171.547631291033,
      "eccentricity": 0.0010783,
      "inclination_deg": 59.9955,
      "raan_deg": 204.5989,
      "arg_perigee_deg": 208.0551,
      "mean_anomaly_deg": 151.9904,
      "mean_motion_rev_day": 14.29497602
    },
    {
      "epoch": "2026-03-30T04:58:37.004736Z",
      "apogee_km": 801.065298132301,
      "perigee_km": 785.7526132077546,
      "latitude_deg": -4.509617859900894e-05,
      "longitude_deg": -60.89353337281686,
      "height_km": 801.6262694557665,
      "semi_major_axis_km": 7171.545955670027,
      "eccentricity": 0.0010676,
      "inclination_deg": 59.9956,
      "raan_deg": 201.3631,
      "arg_perigee_deg": 209.2418,
      "mean_anomaly_deg": 150.802,
      "mean_motion_rev_day": 14.29498103
    },
    {
      "epoch": "2026-03-30T06:39:20.117952Z",
      "apogee_km": 801.0598505672524,
      "perigee_km": 785.7577798304465,
      "latitude_deg": 3.585843544292011e-05,
      "longitude_deg": -86.37326459287432,
      "height_km": 801.6167799184924,
      "semi_major_axis_km": 7171.54581519885,
      "eccentricity": 0.00106686,
      "inclination_deg": 59.9955,
      "raan_deg": 201.1319,
      "arg_perigee_deg": 209.3139,
      "mean_anomaly_deg": 150.7299,
      "mean_motion_rev_day": 14.29498145
    },
    {
      "epoch": "2026-03-30T15:02:55.677984Z",
      "apogee_km": 801.0345175242555,
      "perigee_km": 785.7817884310971,
      "latitude_deg": 5.424915165294623e-05,
      "longitude_deg": 146.22828264156988,
      "height_km": 801.5658444776583,
      "semi_major_axis_km": 7171.5451529776765,
      "eccentricity": 0.00106342,
      "inclination_deg": 59.9961,
      "raan_deg": 199.9763,
      "arg_perigee_deg": 209.7535,
      "mean_anomaly_deg": 150.2897,
      "mean_motion_rev_day": 14.29498343
    },
    {
      "epoch": "2026-03-30T21:45:48.128256Z",
      "apogee_km": 801.0086224183015,
      "perigee_km": 785.8072420563376,
      "latitude_deg": 2.2527813559248255e-05,
      "longitude_deg": 44.309364373671585,
      "height_km": 801.5193225152501,
      "semi_major_axis_km": 7171.54493223732,
      "eccentricity": 0.00105984,
      "inclination_deg": 59.9955,
      "raan_deg": 199.0517,
      "arg_perigee_deg": 210.1157,
      "mean_anomaly_deg": 149.927,
      "mean_motion_rev_day": 14.29498409
    },
    {
      "epoch": "2026-03-31T19:35:08.576736Z",
      "apogee_km": 800.9394231019287,
      "perigee_km": 785.8734446560356,
      "latitude_deg": 3.954208630708706e-06,
      "longitude_deg": 73.07314102094632,
      "height_km": 801.3844369477483,
      "semi_major_axis_km": 7171.543433878982,
      "eccentricity": 0.0010504,
      "inclination_deg": 59.996,
      "raan_deg": 196.0469,
      "arg_perigee_deg": 211.2329,
      "mean_anomaly_deg": 148.8083,
      "mean_motion_rev_day": 14.29498857
    },
    {
      "epoch": "2026-04-01T20:45:55.226592Z",
      "apogee_km": 800.8583116817617,
      "perigee_km": 785.9529774492967,
      "latitude_deg": -7.535171847349052e-06,
      "longitude_deg": 50.877570894356765,
      "height_km": 801.2235331880775,
      "semi_major_axis_km": 7171.542644565529,
      "eccentricity": 0.0010392,
      "inclination_deg": 59.9955,
      "raan_deg": 192.5798,
      "arg_perigee_deg": 212.5635,
      "mean_anomaly_deg": 147.476,
      "mean_motion_rev_day": 14.29499093
    },
    {
      "epoch": "2026-04-02T20:15:58.733856Z",
      "apogee_km": 800.7827339705154,
      "perigee_km": 786.025137033439,
      "latitude_deg": 1.9262538204897868e-05,
      "longitude_deg": 54.161922725330896,
      "height_km": 801.0711144680814,
      "semi_major_axis_km": 7171.5409355019765,
      "eccentricity": 0.0010289,
      "inclination_deg": 59.996,
      "raan_deg": 189.3439,
      "arg_perigee_deg": 213.8196,
      "mean_anomaly_deg": 146.2184,
      "mean_motion_rev_day": 14.29499604
    },
    {
      "epoch": "2026-04-02T23:37:24.929184Z",
      "apogee_km": 800.7715750548359,
      "perigee_km": 786.0337741619287,
      "latitude_deg": -4.1729308798409064e-05,
      "longitude_deg": 3.202562144896995,
      "height_km": 801.0482880149046,
      "semi_major_axis_km": 7171.539674608382,
      "eccentricity": 0.00102752,
      "inclination_deg": 59.996,
      "raan_deg": 188.8816,
      "arg_perigee_deg": 214.0057,
      "mean_anomaly_deg": 146.032,
      "mean_motion_rev_day": 14.29499981
    },
    {
      "epoch": "2026-04-03T19:46:02.184096Z",
      "apogee_km": 800.6994638630522,
      "perigee_km": 786.1010825896719,
      "latitude_deg": -1.5361181083616246e-05,
      "longitude_deg": 57.44647681858623,
      "height_km": 800.9127739863608,
      "semi_major_axis_km": 7171.537273226361,
      "eccentricity": 0.0010178,
      "inclination_deg": 59.996,
      "raan_deg": 186.108,
      "arg_perigee_deg": 215.0494,
      "mean_anomaly_deg": 144.9872,
      "mean_motion_rev_day": 14.29500699
    },
    {
      "epoch": "2026-04-04T07:31:03.889344Z",
      "apogee_km": 800.6625889365787,
      "perigee_km": 786.1362116655846,
      "latitude_deg": -2.170487703760758e-05,
      "longitude_deg": -120.91120714254072,
      "height_km": 800.8370940115922,
      "semi_major_axis_km": 7171.536400301082,
      "eccentricity": 0.00101278,
      "inclination_deg": 59.996,
      "raan_deg": 184.49,
      "arg_perigee_deg": 215.6677,
      "mean_anomaly_deg": 144.3682,
      "mean_motion_rev_day": 14.2950096
    },
    {
      "epoch": "2026-04-05T13:43:59.700864Z",
      "apogee_km": 800.5686243700984,
      "perigee_km": 786.2261293391393,
      "latitude_deg": 4.577659988600625e-05,
      "longitude_deg": 140.45497531683208,
      "height_km": 800.6339535843366,
      "semi_major_axis_km": 7171.534376854619,
      "eccentricity": 0.00099996,
      "inclination_deg": 59.9961,
      "raan_deg": 180.3296,
      "arg_perigee_deg": 217.3661,
      "mean_anomaly_deg": 142.668,
      "mean_motion_rev_day": 14.29501565
    },
    {
      "epoch": "2026-04-05T18:46:08.994720Z",
      "apogee_km": 800.5499371504338,
      "perigee_km": 786.244161029309,
      "latitude_deg": 5.2009545498542336e-05,
      "longitude_deg": 64.01603644273004,
      "height_km": 800.5957607014789,
      "semi_major_axis_km": 7171.534049089872,
      "eccentricity": 0.0009974,
      "inclination_deg": 59.996,
      "raan_deg": 179.6362,
      "arg_perigee_deg": 217.6722,
      "mean_anomaly_deg": 142.3616,
      "mean_motion_rev_day": 14.29501663
    },
    {
      "epoch": "2026-04-06T06:31:10.673184Z",
      "apogee_km": 800.5134810970103,
      "perigee_km": 786.2789916374741,
      "latitude_deg": 3.5559996095743415e-05,
      "longitude_deg": -114.34154217088377,
      "height_km": 800.5214500000199,
      "semi_major_axis_km": 7171.533236367242,
      "eccentricity": 0.00099243,
      "inclination_deg": 59.996,
      "raan_deg": 178.0182,
      "arg_perigee_deg": 218.265,
      "mean_anomaly_deg": 141.7682,
      "mean_motion_rev_day": 14.29501906
    },
    {
      "epoch": "2026-04-07T14:24:49.489056Z",
      "apogee_km": 800.4156880343444,
      "perigee_km": 786.3731123995794,
      "latitude_deg": 3.19342302447481e-06,
      "longitude_deg": 121.54535808917908,
      "height_km": 800.3010711783569,
      "semi_major_axis_km": 7171.531400216962,
      "eccentricity": 0.00097905,
      "inclination_deg": 59.996,
      "raan_deg": 173.6267,
      "arg_perigee_deg": 220.1151,
      "mean_anomaly_deg": 139.9162,
      "mean_motion_rev_day": 14.29502455
    },
    {
      "epoch": "2026-04-07T17:46:15.680928Z",
      "apogee_km": 800.4045018567867,
      "perigee_km": 786.3841581066727,
      "latitude_deg": -4.9029659267189495e-06,
      "longitude_deg": 70.58604182232537,
      "height_km": 800.2763801807839,
      "semi_major_axis_km": 7171.531329981729,
      "eccentricity": 0.0009775,
      "inclination_deg": 59.9959,
      "raan_deg": 173.1644,
      "arg_perigee_deg": 220.3191,
      "mean_anomaly_deg": 139.712,
      "mean_motion_rev_day": 14.29502476
    },
    {
      "epoch": "2026-04-08T15:35:35.896128Z",
      "apogee_km": 800.3424004725011,
      "perigee_km": 786.4448347192747,
      "latitude_deg": 7.214582752578024e-05,
      "longitude_deg": 99.35084403410782,
      "height_km": 800.130067949114,
      "semi_major_axis_km": 7171.530617595888,
      "eccentricity": 0.00096894,
      "inclination_deg": 59.9958,
      "raan_deg": 170.1596,
      "arg_perigee_deg": 221.5625,
      "mean_anomaly_deg": 138.4675,
      "mean_motion_rev_day": 14.29502689
    },
    {
      "epoch": "2026-04-09T18:27:05.380128Z",
      "apogee_km": 800.2640157043088,
      "perigee_km": 786.5204970373998,
      "latitude_deg": 5.86625016465714e-05,
      "longitude_deg": 51.676756302785996,
      "height_km": 799.9458122139522,
      "semi_major_axis_km": 7171.5292563708545,
      "eccentricity": 0.0009582,
      "inclination_deg": 59.9957,
      "raan_deg": 166.4614,
      "arg_perigee_deg": 223.1136,
      "mean_anomaly_deg": 136.915,
      "mean_motion_rev_day": 14.29503096
    }
  ]
}